{
  "type": "FeatureCollection",
  "features": [
    {
      "type": "Feature",
      "properties": {
        "norad_id": 65731,
        "name": "1998-067XK",
        "group": "stations",
        "lat": -36.36102778836634,
        "lon": 61.11619621669265,
        "alt_km": 367.908078373679,
        "timestamp": "2025-12-20T16:47:35.053339+00:00",
        "meta_object_name": "1998-067XK",
        "meta_object_id": "1998-067XK",
        "meta_epoch": "2025-12-20T00:10:02.026560",
        "meta_mean_motion": 15.67078773,
        "meta_eccentricity": 0.00047639,
        "meta_inclination": 51.6294,
        "meta_ra_of_asc_node": 100.3244,
        "meta_arg_of_pericenter": 292.7833,
        "meta_mean_anomaly": 67.2659,
        "meta_ephemeris_type": 0,
        "meta_classification_type": "U",
        "meta_norad_cat_id": 65731,
        "meta_element_set_no": 999,
        "meta_rev_at_epoch": 1428,
        "meta_bstar": 0.00070175188,
        "meta_mean_motion_dot": 0.00076617,
        "meta_mean_motion_ddot": 0,
        "tle_line1": "1 65731U 98067XK  25354.00696790  .00076617  00000+0  70175-3 0  9997",
        "tle_line2": "2 65731  51.6294 100.3244 0004763 292.7833  67.2659 15.67078773 14280"
      },
      "geometry": {
        "type": "Point",
        "coordinates": [
          61.11619621669265,
          -36.36102778836634
        ]
      }
    },
    {
      "type": "Feature",
      "properties": {
        "norad_id": 65732,
        "name": "RSP-03",
        "group": "stations",
        "lat": 10.269331089040802,
        "lon": 104.1591977870937,
        "alt_km": 355.5790937351503,
        "timestamp": "2025-12-20T16:47:35.053350+00:00",
        "meta_object_name": "RSP-03",
        "meta_object_id": "1998-067XL",
        "meta_epoch": "2025-12-19T10:11:34.022112",
        "meta_mean_motion": 15.70283101,
        "meta_eccentricity": 0.0005658,
        "meta_inclination": 51.6265,
        "meta_ra_of_asc_node": 102.4221,
        "meta_arg_of_pericenter": 294.5755,
        "meta_mean_anomaly": 65.4652,
        "meta_ephemeris_type": 0,
        "meta_classification_type": "U",
        "meta_norad_cat_id": 65732,
        "meta_element_set_no": 999,
        "meta_rev_at_epoch": 1421,
        "meta_bstar": 0.00084699,
        "meta_mean_motion_dot": 0.00106087,
        "meta_mean_motion_ddot": 0,
        "tle_line1": "1 65732U 98067XL  25353.42469933  .00106087  00000+0  84699-3 0  9991",
        "tle_line2": "2 65732  51.6265 102.4221 0005658 294.5755  65.4652 15.70283101 14217"
      },
      "geometry": {
        "type": "Point",
        "coordinates": [
          104.1591977870937,
          10.269331089040802
        ]
      }
    },
    {
      "type": "Feature",
      "properties": {
        "norad_id": 65733,
        "name": "GHS-01",
        "group": "stations",
        "lat": 37.00518543090032,
        "lon": -122.51073770556171,
        "alt_km": 335.976050691027,
        "timestamp": "2025-12-20T16:47:35.053360+00:00",
        "meta_object_name": "GHS-01",
        "meta_object_id": "1998-067XM",
        "meta_epoch": "2025-12-20T11:41:11.075136",
        "meta_mean_motion": 15.78117355,
        "meta_eccentricity": 0.0008545,
        "meta_inclination": 51.6277,
        "meta_ra_of_asc_node": 95.2602,
        "meta_arg_of_pericenter": 329.3713,
        "meta_mean_anomaly": 30.6788,
        "meta_ephemeris_type": 0,
        "meta_classification_type": "U",
        "meta_norad_cat_id": 65733,
        "meta_element_set_no": 999,
        "meta_rev_at_epoch": 1440,
        "meta_bstar": 0.0011085,
        "meta_mean_motion_dot": 0.00197582,
        "meta_mean_motion_ddot": 0,
        "tle_line1": "1 65733U 98067XM  25354.48693374  .00197582  00000+0  11085-2 0  9995",
        "tle_line2": "2 65733  51.6277  95.2602 0008545 329.3713  30.6788 15.78117355 14402"
      },
      "geometry": {
        "type": "Point",
        "coordinates": [
          -122.51073770556171,
          37.00518543090032
        ]
      }
    },
    {
      "type": "Feature",
      "properties": {
        "norad_id": 65941,
        "name": "YOTSUBA-KULOVER",
        "group": "stations",
        "lat": -45.2993773611116,
        "lon": -26.871199270680755,
        "alt_km": 390.52976070456134,
        "timestamp": "2025-12-20T16:47:35.053370+00:00",
        "meta_object_name": "YOTSUBA-KULOVER",
        "meta_object_id": "1998-067XN",
        "meta_epoch": "2025-12-19T10:32:35.848320",
        "meta_mean_motion": 15.60329664,
        "meta_eccentricity": 0.00017537,
        "meta_inclination": 51.6289,
        "meta_ra_of_asc_node": 106.2819,
        "meta_arg_of_pericenter": 320.2615,
        "meta_mean_anomaly": 39.8249,
        "meta_ephemeris_type": 0,
        "meta_classification_type": "U",
        "meta_norad_cat_id": 65941,
        "meta_element_set_no": 999,
        "meta_rev_at_epoch": 1090,
        "meta_bstar": 0.0006131661,
        "meta_mean_motion_dot": 0.00050991,
        "meta_mean_motion_ddot": 0,
        "tle_line1": "1 65941U 98067XN  25353.43930380  .00050991  00000+0  61317-3 0  9997",
        "tle_line2": "2 65941  51.6289 106.2819 0001753 320.2615  39.8249 15.60329664 10907"
      },
      "geometry": {
        "type": "Point",
        "coordinates": [
          -26.871199270680755,
          -45.2993773611116
        ]
      }
    },
    {
      "type": "Feature",
      "properties": {
        "norad_id": 65942,
        "name": "BOTAN",
        "group": "stations",
        "lat": -29.982428142911814,
        "lon": 71.82685848332771,
        "alt_km": 376.55204341432363,
        "timestamp": "2025-12-20T16:47:35.053381+00:00",
        "meta_object_name": "BOTAN",
        "meta_object_id": "1998-067XP",
        "meta_epoch": "2025-12-20T04:41:49.337088",
        "meta_mean_motion": 15.64374422,
        "meta_eccentricity": 0.00029517,
        "meta_inclination": 51.6284,
        "meta_ra_of_asc_node": 101.583,
        "meta_arg_of_pericenter": 302.22,
        "meta_mean_anomaly": 57.8508,
        "meta_ephemeris_type": 0,
        "meta_classification_type": "U",
        "meta_norad_cat_id": 65942,
        "meta_element_set_no": 999,
        "meta_rev_at_epoch": 1103,
        "meta_bstar": 0.00087028097,
        "meta_mean_motion_dot": 0.0008541,
        "meta_mean_motion_ddot": 0,
        "tle_line1": "1 65942U 98067XP  25354.19570992  .00085410  00000+0  87028-3 0  9992",
        "tle_line2": "2 65942  51.6284 101.5830 0002951 302.2200  57.8508 15.64374422 11034"
      },
      "geometry": {
        "type": "Point",
        "coordinates": [
          71.82685848332771,
          -29.982428142911814
        ]
      }
    },
    {
      "type": "Feature",
      "properties": {
        "norad_id": 65943,
        "name": "E-KAGAKU-1",
        "group": "stations",
        "lat": -45.135326618946195,
        "lon": -27.306321700549702,
        "alt_km": 389.6782490399228,
        "timestamp": "2025-12-20T16:47:35.053391+00:00",
        "meta_object_name": "E-KAGAKU-1",
        "meta_object_id": "1998-067XQ",
        "meta_epoch": "2025-12-18T08:24:49.666176",
        "meta_mean_motion": 15.60193795,
        "meta_eccentricity": 0.00013451,
        "meta_inclination": 51.6302,
        "meta_ra_of_asc_node": 111.7666,
        "meta_arg_of_pericenter": 249.8249,
        "meta_mean_anomaly": 110.26,
        "meta_ephemeris_type": 0,
        "meta_classification_type": "U",
        "meta_norad_cat_id": 65943,
        "meta_element_set_no": 999,
        "meta_rev_at_epoch": 1073,
        "meta_bstar": 0.00084619625,
        "meta_mean_motion_dot": 0.00070368,
        "meta_mean_motion_ddot": 0,
        "tle_line1": "1 65943U 98067XQ  25352.35057484  .00070368  00000+0  84620-3 0  9996",
        "tle_line2": "2 65943  51.6302 111.7666 0001345 249.8249 110.2600 15.60193795 10732"
      },
      "geometry": {
        "type": "Point",
        "coordinates": [
          -27.306321700549702,
          -45.135326618946195
        ]
      }
    },
    {
      "type": "Feature",
      "properties": {
        "norad_id": 66052,
        "name": "HRC MONOBLOCK CAMERA",
        "group": "stations",
        "lat": 46.94682632987677,
        "lon": 159.8002973899142,
        "alt_km": 398.1526596024296,
        "timestamp": "2025-12-20T16:47:35.053404+00:00",
        "meta_object_name": "HRC MONOBLOCK CAMERA",
        "meta_object_id": "1998-067XR",
        "meta_epoch": "2025-12-20T11:52:12.969984",
        "meta_mean_motion": 15.54656464,
        "meta_eccentricity": 0.0002464,
        "meta_inclination": 51.6308,
        "meta_ra_of_asc_node": 102.825,
        "meta_arg_of_pericenter": 220.8988,
        "meta_mean_anomaly": 139.1818,
        "meta_ephemeris_type": 0,
        "meta_classification_type": "U",
        "meta_norad_cat_id": 66052,
        "meta_element_set_no": 999,
        "meta_rev_at_epoch": 1004,
        "meta_bstar": 0.00040452,
        "meta_mean_motion_dot": 0.00026911,
        "meta_mean_motion_ddot": 0,
        "tle_line1": "1 66052U 98067XR  25354.49459456  .00026911  00000+0  40452-3 0  9990",
        "tle_line2": "2 66052  51.6308 102.8250 0002464 220.8988 139.1818 15.54656464 10047"
      },
      "geometry": {
        "type": "Point",
        "coordinates": [
          159.8002973899142,
          46.94682632987677
        ]
      }
    }
  ]
}